#aV2009 12 25  0  0   .00000000      96 DD+AD WGS84 FIT  NGA
## 1563 432000.00000000   900.00000000 55190  .0000000000000
+   32     1  2  3  4  5  6  7  8  9 10 11 12 13 14 15 16 17
+         18 19 20 21 22 23 24 25 26 27 28 29 30 31 32  0  0
+          0  0  0  0  0  0  0  0  0  0  0  0  0  0  0  0  0
+          0  0  0  0  0  0  0  0  0  0  0  0  0  0  0  0  0
+          0  0  0  0  0  0  0  0  0  0  0  0  0  0  0  0  0
++         0  0  0  0  0  0  0  0  0  0  0  0  0  0  0  0  0
++         0  0  0  0  0  0  0  0  0  0  0  0  0  0  0  0  0
++         0  0  0  0  0  0  0  0  0  0  0  0  0  0  0  0  0
++         0  0  0  0  0  0  0  0  0  0  0  0  0  0  0  0  0
++         0  0  0  0  0  0  0  0  0  0  0  0  0  0  0  0  0
%c cc cc ccc ccc cccc cccc cccc cccc ccccc ccccc ccccc ccccc
%c cc cc ccc ccc cccc cccc cccc cccc ccccc ccccc ccccc ccccc
%f  0.0000000  0.000000000  0.00000000000  0.000000000000000
%f  0.0000000  0.000000000  0.00000000000  0.000000000000000
%i    0    0    0    0      0      0      0      0         0
%i    0    0    0    0      0      0      0      0         0
/*      NGA, ST. LOUIS,MO.                                  
/*   EPHEMERIS COMPUTED FROM  3 DAYS OF DATA                
/* CCCCCCCCCCCCCCCCCCCCCCCCCCCCCCCCCCCCCCCCCCCCCCCCCCCCCCCCC
/* CCCCCCCCCCCCCCCCCCCCCCCCCCCCCCCCCCCCCCCCCCCCCCCCCCCCCCCCC
*  2009 12 25  9 30   .00000000                                                 
P  1  15319.430731  19046.474787 -10623.768513    -73.987317                    
V  1 -12346.190948  -5454.960302 -27740.180192      -.029620                    
P  2 -22524.693766  13396.257938   2400.232422    207.713009                    
V  2  -4564.715153  -1984.789821 -31373.033486       .045099                    
P  3  10973.973797 -17848.983599  15770.233493    492.677839                    
V  3   3927.308857  20740.659135  20639.091357       .052408                    
P  4 -24745.341059   4464.793676  -9270.656858   -424.059644                    
V  4   9082.097936  -7550.948440 -28015.975019      -.187942                    
P  5 -13165.849853   9044.159922  21216.014374    -24.316505                    
V  5 -22095.141005 -15468.838238  -7030.451988       .047995                    
P  6  13568.538778 -14262.946292  17959.774236    263.032061                    
V  6   1566.944934  22615.823868  17051.308729      -.009737                    
P  7  -9961.154731 -11680.228623  21681.662066      5.414479                    
V  7  24599.804439 -12303.011135   4520.471680      -.006256                    
P  8 -20721.164376  -3253.938899  16585.524874      1.325241                    
V  8  18932.635798  -8737.425177  21399.734662       .004654                    
P  9  -8971.033894  18227.212653 -17743.864254     96.043813                    
V  9 -19330.968850   8829.855713  19628.152002       .022182                    
P 10 -17526.625360   4398.088673  19403.857142    -31.137849                    
V 10 -19669.548351 -15350.196693 -13820.445964      -.009166                    
P 11   2999.779770 -20225.798529 -17023.929015    -36.096895                    
V 11  18670.184976 -11219.400983  17237.956543      -.020006                    
P 12   3106.742008  18084.152301 -19197.018514   -171.914133                    
V 12 -20816.637578 -12828.187948 -15278.203303       .050819                    
P 13  -6285.543614 -21611.452763  13965.026678    306.619410                    
V 13   3772.199613 -17551.276753 -25249.536839       .000895                    
P 14  13821.855359   5841.820601 -21788.663510     -7.965099                    
V 14  -3389.191095  27705.828311   5126.307478       .046068                    
P 15  -7806.823837  23593.810824   9263.408525   -316.643572                    
V 15  -2164.861697 -11892.442210  28647.995201       .015634                    
P 16  18794.672390  -2403.812452  18763.666831    -23.222566                    
V 16  18586.231024  14605.436811 -16540.488622      -.041489                    
P 17 -14739.292551  -4630.534931 -21545.433531    115.093263                    
V 17   2709.273218 -27390.557580   3815.235191       .034592                    
P 18  19117.918402  18101.416684   5043.046218     37.146833                    
V 18  -6687.276154  -1018.590829  30178.769454       .027219                    
P 19   8694.483434 -23846.428284   7345.359785     -5.821997                    
V 19   1604.687244   9689.262648  29977.714342      -.020769                    
P 20  -7603.650174 -19298.092053 -16752.464449     64.729060                    
V 20  18940.201600   9465.880598 -19597.316361      -.007822                    
P 21  15376.444734   9207.721533  20069.467936    -29.725954                    
V 21 -22001.524488  11435.977802  11155.033232      -.023846                    
P 22  23350.200150  10783.023332  -6623.891576    183.140978                    
V 22   5055.719918   7757.130513  29644.751068      -.011213                    
P 23   -109.713485 -26217.135265   3043.074857    383.740626                    
V 23   3080.025725  -3704.041349 -31824.329955      -.007178                    
P 24  -1106.244644  16669.075576  20803.239200    248.038651                    
V 24 -24355.412750   9585.199764  -8776.655017       .033555                    
P 25  -3523.971297 -15282.746431  21806.294157     63.150458                    
V 25  23065.474371 -13666.844297  -5757.980485       .101417                    
P 26  11040.023546  14575.397030 -19623.662652     -4.639100                    
V 26  -4085.997269  23523.011684  16061.441675      -.026850                    
P 27 -12740.784754  18001.362804 -14050.210092    111.337940                    
V 27 -17609.752136   7526.595450  24496.789065       .032716                    
P 28 -22840.231080 -13177.826914  -3902.752581    -24.386317                    
V 28  -3085.829364  -5080.737152  31224.783495       .003902                    
P 29   5175.068267  23830.009057  10660.924009     84.892256                    
V 29  -3720.468915  13095.943619 -27657.991115       .030135                    
P 30  13753.044438  19052.479575 -12821.576695    204.675204                    
V 30 -14557.505877  -6211.658253 -25562.095811       .033658                    
P 31  24729.276520  -6813.216819  -6973.282053    -57.593279                    
V 31  -7224.834574   5929.092419 -30316.489532       .011876                    
P 32   1806.185342 -16709.117086 -20273.490741    130.909391                    
V 32  21188.997267  15928.118250 -10736.053670      -.078541                    
EOF
